{"type": "FeatureCollection", "features": [ {"type": "Feature", "properties": {"norad_id": 30860, "name": "FENGYUN 1C DEB", "group": "fengyun-1c-debris", "lat": 77.63994309337652, "lon": 20.439236550522597, "alt_km": 799.1410063440981, "timestamp": "2025-12-18T13:51:49.963045+00:00", "meta": {"OBJECT_NAME": "FENGYUN 1C DEB", "OBJECT_ID": "1999-025AWW", "EPOCH": "2025-12-18T03:22:28.013664", "MEAN_MOTION": 14.25535938, "ECCENTRICITY": 0.00402655, "INCLINATION": 98.9058, "RA_OF_ASC_NODE": 65.6834, "ARG_OF_PERICENTER": 172.4545, "MEAN_ANOMALY": 187.7249, "EPHEMERIS_TYPE": 0, "CLASSIFICATION_TYPE": "U", "NORAD_CAT_ID": 30860, "ELEMENT_SET_NO": 999, "REV_AT_EPOCH": 96593, "BSTAR": 0.0012657763, "MEAN_MOTION_DOT": 2.974e-05, "MEAN_MOTION_DDOT": 0}, "tle": {"line1": "1 30860U 99025AWW 25352.14060201  .00002974  00000+0  12658-2 0  9998", "line2": "2 30860  98.9058  65.6834 0040265 172.4545 187.7249 14.25535938965930"}}, "geometry": {"type": "Point", "coordinates": [20.439236550522597, 77.63994309337652]}}, {"type": "Feature", "properties": {"norad_id": 30862, "name": "FENGYUN 1C DEB", "group": "fengyun-1c-debris", "lat": -70.77647152390162, "lon": -123.26322877144311, "alt_km": 765.4585670659126, "timestamp": "2025-12-18T13:51:49.963055+00:00", "meta": {"OBJECT_NAME": "FENGYUN 1C DEB", "OBJECT_ID": "1999-025AWY", "EPOCH": "2025-12-17T05:13:21.995616", "MEAN_MOTION": 14.43167905, "ECCENTRICITY": 0.00522868, "INCLINATION": 98.9603, "RA_OF_ASC_NODE": 82.2098, "ARG_OF_PERICENTER": 150.6942, "MEAN_ANOMALY": 239.608, "EPHEMERIS_TYPE": 0, "CLASSIFICATION_TYPE": "U", "NORAD_CAT_ID": 30862, "ELEMENT_SET_NO": 999, "REV_AT_EPOCH": 96784, "BSTAR": 0.0025604626, "MEAN_MOTION_DOT": 8.708e-05, "MEAN_MOTION_DDOT": 0}, "tle": {"line1": "1 30862U 99025AWY 25351.21761569  .00008708  00000+0  25605-2 0  9999", "line2": "2 30862  98.9603  82.2098 0052286 150.6942 239.6080 14.43167905967847"}}, "geometry": {"type": "Point", "coordinates": [-123.26322877144311, -70.77647152390162]}}, {"type": "Feature", "properties": {"norad_id": 30863, "name": "FENGYUN 1C DEB", "group": "fengyun-1c-debris", "lat": -46.420742900172236, "lon": -7.45154790105341, "alt_km": 829.7490048116706, "timestamp": "2025-12-18T13:51:49.963066+00:00", "meta": {"OBJECT_NAME": "FENGYUN 1C DEB", "OBJECT_ID": "1999-025AWZ", "EPOCH": "2025-12-17T23:59:19.074048", "MEAN_MOTION": 12.40532434, "ECCENTRICITY": 0.08776731, "INCLINATION": 99.1197, "RA_OF_ASC_NODE": 181.8242, "ARG_OF_PERICENTER": 239.3323, "MEAN_ANOMALY": 288.8971, "EPHEMERIS_TYPE": 0, "CLASSIFICATION_TYPE": "U", "NORAD_CAT_ID": 30863, "ELEMENT_SET_NO": 999, "REV_AT_EPOCH": 59805, "BSTAR": 0.0033089193, "MEAN_MOTION_DOT": 1.708e-05, "MEAN_MOTION_DDOT": 0}, "tle": {"line1": "1 30863U 99025AWZ 25351.99952632  .00001708  00000+0  33089-2 0  9996", "line2": "2 30863  99.1197 181.8242 0877673 239.3323 288.8971 12.40532434598055"}}, "geometry": {"type": "Point", "coordinates": [-7.45154790105341, -46.420742900172236]}}, {"type": "Feature", "properties": {"norad_id": 30867, "name": "FENGYUN 1C DEB", "group": "fengyun-1c-debris", "lat": -18.313154735795763, "lon": 76.21613526831243, "alt_km": 833.0400034053973, "timestamp": "2025-12-18T13:51:49.963076+00:00", "meta": {"OBJECT_NAME": "FENGYUN 1C DEB", "OBJECT_ID": "1999-025AXD", "EPOCH": "2025-12-18T05:14:29.791968", "MEAN_MOTION": 14.28057797, "ECCENTRICITY": 0.00540947, "INCLINATION": 97.8775, "RA_OF_ASC_NODE": 258.5183, "ARG_OF_PERICENTER": 339.8314, "MEAN_ANOMALY": 173.0495, "EPHEMERIS_TYPE": 0, "CLASSIFICATION_TYPE": "U", "NORAD_CAT_ID": 30867, "ELEMENT_SET_NO": 999, "REV_AT_EPOCH": 96615, "BSTAR": 0.0020025766, "MEAN_MOTION_DOT": 5.016e-05, "MEAN_MOTION_DDOT": 0}, "tle": {"line1": "1 30867U 99025AXD 25352.21840037  .00005016  00000+0  20026-2 0  9994", "line2": "2 30867  97.8775 258.5183 0054094 339.8314 173.0495 14.28057797966150"}}, "geometry": {"type": "Point", "coordinates": [76.21613526831243, -18.313154735795763]}}, {"type": "Feature", "properties": {"norad_id": 30868, "name": "FENGYUN 1C DEB", "group": "fengyun-1c-debris", "lat": 38.60099270480207, "lon": -136.5095055880143, "alt_km": 942.479099854997, "timestamp": "2025-12-18T13:51:49.963087+00:00", "meta": {"OBJECT_NAME": "FENGYUN 1C DEB", "OBJECT_ID": "1999-025AXE", "EPOCH": "2025-12-16T11:13:11.203392", "MEAN_MOTION": 14.11122196, "ECCENTRICITY": 0.0135335, "INCLINATION": 98.2632, "RA_OF_ASC_NODE": 228.2096, "ARG_OF_PERICENTER": 202.1695, "MEAN_ANOMALY": 283.9237, "EPHEMERIS_TYPE": 0, "CLASSIFICATION_TYPE": "U", "NORAD_CAT_ID": 30868, "ELEMENT_SET_NO": 999, "REV_AT_EPOCH": 96763, "BSTAR": 0.00014364777, "MEAN_MOTION_DOT": 2.43e-06, "MEAN_MOTION_DDOT": 0}, "tle": {"line1": "1 30868U 99025AXE 25350.46749078  .00000243  00000+0  14365-3 0  9990", "line2": "2 30868  98.2632 228.2096 0135335 202.1695 283.9237 14.11122196967634"}}, "geometry": {"type": "Point", "coordinates": [-136.5095055880143, 38.60099270480207]}}, {"type": "Feature", "properties": {"norad_id": 30872, "name": "FENGYUN 1C DEB", "group": "fengyun-1c-debris", "lat": 78.69942467480053, "lon": -8.768035141497373, "alt_km": 743.823540734451, "timestamp": "2025-12-18T13:51:49.963097+00:00", "meta": {"OBJECT_NAME": "FENGYUN 1C DEB", "OBJECT_ID": "1999-025AXJ", "EPOCH": "2025-12-17T14:50:15.681984", "MEAN_MOTION": 14.39449543, "ECCENTRICITY": 0.00405931, "INCLINATION": 99.1928, "RA_OF_ASC_NODE": 44.338, "ARG_OF_PERICENTER": 14.3249, "MEAN_ANOMALY": 139.7018, "EPHEMERIS_TYPE": 0, "CLASSIFICATION_TYPE": "U", "NORAD_CAT_ID": 30872, "ELEMENT_SET_NO": 999, "REV_AT_EPOCH": 97806, "BSTAR": 0.00065397425, "MEAN_MOTION_DOT": 2.007e-05, "MEAN_MOTION_DDOT": 0}, "tle": {"line1": "1 30872U 99025AXJ 25351.61823706  .00002007  00000+0  65397-3 0  9995", "line2": "2 30872  99.1928  44.3380 0040593  14.3249 139.7018 14.39449543978061"}}, "geometry": {"type": "Point", "coordinates": [-8.768035141497373, 78.69942467480053]}}, {"type": "Feature", "properties": {"norad_id": 30873, "name": "FENGYUN 1C DEB", "group": "fengyun-1c-debris", "lat": -56.04079974509498, "lon": 5.725789499950328, "alt_km": 768.7287153803609, "timestamp": "2025-12-18T13:51:49.963107+00:00", "meta": {"OBJECT_NAME": "FENGYUN 1C DEB", "OBJECT_ID": "1999-025AXK", "EPOCH": "2025-12-18T05:40:07.520160", "MEAN_MOTION": 14.19143201, "ECCENTRICITY": 0.01076955, "INCLINATION": 98.6117, "RA_OF_ASC_NODE": 352.3902, "ARG_OF_PERICENTER": 272.7266, "MEAN_ANOMALY": 86.1588, "EPHEMERIS_TYPE": 0, "CLASSIFICATION_TYPE": "U", "NORAD_CAT_ID": 30873, "ELEMENT_SET_NO": 999, "REV_AT_EPOCH": 97270, "BSTAR": 0.00018085309, "MEAN_MOTION_DOT": 3.57e-06, "MEAN_MOTION_DDOT": 0}, "tle": {"line1": "1 30873U 99025AXK 25352.23619815  .00000357  00000+0  18085-3 0  9997", "line2": "2 30873  98.6117 352.3902 0107695 272.7266  86.1588 14.19143201972706"}}, "geometry": {"type": "Point", "coordinates": [5.725789499950328, -56.04079974509498]}}, {"type": "Feature", "properties": {"norad_id": 30874, "name": "FENGYUN 1C DEB", "group": "fengyun-1c-debris", "lat": -48.44145477751256, "lon": -166.75000052221185, "alt_km": 860.4844621472957, "timestamp": "2025-12-18T13:51:49.963117+00:00", "meta": {"OBJECT_NAME": "FENGYUN 1C DEB", "OBJECT_ID": "1999-025AXL", "EPOCH": "2025-12-18T01:05:11.391072", "MEAN_MOTION": 14.19659654, "ECCENTRICITY": 0.0041746, "INCLINATION": 98.4902, "RA_OF_ASC_NODE": 22.4393, "ARG_OF_PERICENTER": 25.3092, "MEAN_ANOMALY": 4.5886, "EPHEMERIS_TYPE": 0, "CLASSIFICATION_TYPE": "U", "NORAD_CAT_ID": 30874, "ELEMENT_SET_NO": 999, "REV_AT_EPOCH": 97096, "BSTAR": 0.00038525511, "MEAN_MOTION_DOT": 7.79e-06, "MEAN_MOTION_DDOT": 0}, "tle": {"line1": "1 30874U 99025AXL 25352.04527073  .00000779  00000+0  38526-3 0  9991", "line2": "2 30874  98.4902  22.4393 0041746  25.3092   4.5886 14.19659654970964"}}, "geometry": {"type": "Point", "coordinates": [-166.75000052221185, -48.44145477751256]}}, {"type": "Feature", "properties": {"norad_id": 30876, "name": "FENGYUN 1C DEB", "group": "fengyun-1c-debris", "lat": -42.2591459700322, "lon": 149.33243624381475, "alt_km": 865.2865860849533, "timestamp": "2025-12-18T13:51:49.963128+00:00", "meta": {"OBJECT_NAME": "FENGYUN 1C DEB", "OBJECT_ID": "1999-025AXN", "EPOCH": "2025-12-17T05:58:58.282752", "MEAN_MOTION": 13.99173817, "ECCENTRICITY": 0.00663008, "INCLINATION": 98.8104, "RA_OF_ASC_NODE": 336.156, "ARG_OF_PERICENTER": 264.9068, "MEAN_ANOMALY": 110.9745, "EPHEMERIS_TYPE": 0, "CLASSIFICATION_TYPE": "U", "NORAD_CAT_ID": 30876, "ELEMENT_SET_NO": 999, "REV_AT_EPOCH": 95773, "BSTAR": 0.00048195516, "MEAN_MOTION_DOT": 6.69e-06, "MEAN_MOTION_DDOT": 0}, "tle": {"line1": "1 30876U 99025AXN 25351.24928568  .00000669  00000+0  48196-3 0  9990", "line2": "2 30876  98.8104 336.1560 0066300 264.9068 110.9745 13.99173817957737"}}, "geometry": {"type": "Point", "coordinates": [149.33243624381475, -42.2591459700322]}}, {"type": "Feature", "properties": {"norad_id": 30878, "name": "FENGYUN 1C DEB", "group": "fengyun-1c-debris", "lat": -65.31230192574263, "lon": 154.3874575522322, "alt_km": 835.2482492464133, "timestamp": "2025-12-18T13:51:49.963138+00:00", "meta": {"OBJECT_NAME": "FENGYUN 1C DEB", "OBJECT_ID": "1999-025AXQ", "EPOCH": "2025-12-17T11:54:16.281792", "MEAN_MOTION": 14.1189648, "ECCENTRICITY": 0.00399365, "INCLINATION": 98.7204, "RA_OF_ASC_NODE": 352.8406, "ARG_OF_PERICENTER": 280.6825, "MEAN_ANOMALY": 231.5969, "EPHEMERIS_TYPE": 0, "CLASSIFICATION_TYPE": "U", "NORAD_CAT_ID": 30878, "ELEMENT_SET_NO": 999, "REV_AT_EPOCH": 96434, "BSTAR": 0.00050344617, "MEAN_MOTION_DOT": 8.83e-06, "MEAN_MOTION_DDOT": 0}, "tle": {"line1": "1 30878U 99025AXQ 25351.49602178  .00000883  00000+0  50345-3 0  9992", "line2": "2 30878  98.7204 352.8406 0039936 280.6825 231.5969 14.11896480964340"}}, "geometry": {"type": "Point", "coordinates": [154.3874575522322, -65.31230192574263]}}]}